#aV2008  4 20  0  0   .00000000      96 DD+AD WGS84 FIT  NGA
## 1476       .00000000   900.00000000 54576  .0000000000000
+   31     2  3  4  5  6  7  8  9 10 11 12 13 14 15 16 17 18
+         19 20 21 22 23 24 25 26 27 28 29 30 31 32  0  0  0
+          0  0  0  0  0  0  0  0  0  0  0  0  0  0  0  0  0
+          0  0  0  0  0  0  0  0  0  0  0  0  0  0  0  0  0
+          0  0  0  0  0  0  0  0  0  0  0  0  0  0  0  0  0
++         0  0  0  0  0  0  0  0  0  0  0  0  0  0  0  0  0
++         0  0  0  0  0  0  0  0  0  0  0  0  0  0  0  0  0
++         0  0  0  0  0  0  0  0  0  0  0  0  0  0  0  0  0
++         0  0  0  0  0  0  0  0  0  0  0  0  0  0  0  0  0
++         0  0  0  0  0  0  0  0  0  0  0  0  0  0  0  0  0
%c cc cc ccc ccc cccc cccc cccc cccc ccccc ccccc ccccc ccccc
%c cc cc ccc ccc cccc cccc cccc cccc ccccc ccccc ccccc ccccc
%f  0.0000000  0.000000000  0.00000000000  0.000000000000000
%f  0.0000000  0.000000000  0.00000000000  0.000000000000000
%i    0    0    0    0      0      0      0      0         0
%i    0    0    0    0      0      0      0      0         0
/*      NGA, ST. LOUIS,MO.                                  
/*   EPHEMERIS COMPUTED FROM  3 DAYS OF DATA                
/* CCCCCCCCCCCCCCCCCCCCCCCCCCCCCCCCCCCCCCCCCCCCCCCCCCCCCCCCC
/* CCCCCCCCCCCCCCCCCCCCCCCCCCCCCCCCCCCCCCCCCCCCCCCCCCCCCCCCC
*  2008  4 20 15 30   .00000000                                                 
P  2  23166.906597 -12548.198378    936.105719    192.252686                    
V  2   2907.587268   2620.763896 -31576.358431       .032278                    
P  3 -11683.922185  16814.693382  16477.709026    217.029682                    
V  3  -3645.469845 -21513.495440  19427.506438       .053264                    
P  4  24670.513389  -4352.790148  -9452.744553    -50.219010                    
V  4  -9411.174584   7592.224292 -27988.510485      -.079284                    
P  5  -9679.820525 -18796.750955 -16427.345461    754.046182                    
V  5  18902.858049   7853.258232 -20313.872793       .089546                    
P  6 -15899.466129    205.559640  21470.334345    105.674667                    
V  6    521.817894 -26919.299464    617.739307       .114022                    
P  7   8649.722848  12597.624123  21703.924658    -64.740005                    
V  7 -24629.843229  12472.096039   2511.196700       .113053                    
P  8  20526.019673   3235.133574  16726.387236   -149.725609                    
V  8 -18968.110450   9460.401131  20885.239447      -.014585                    
P  9   6788.521951 -18215.245257 -18648.366673    120.864040                    
V  9  20327.902084  -9602.441535  17530.486267       .017164                    
P 10  14581.652394  -7452.953321  20838.516878      -.812008                    
V 10  21495.606042  15844.043618  -8990.425998      -.003783                    
P 11  -1589.815741  19471.869785 -18013.894682     26.218953                    
V 11 -19852.031847  11847.646187  15013.578231      -.002091                    
P 12  -4239.621916 -18385.540326 -18635.073963   -359.057290                    
V 12  20604.484348  12033.947764 -16388.195627      -.001611                    
P 13   6909.315002  21331.428772  14142.384261    251.523783                    
V 13  -3274.329558  17837.170582 -25071.760093       .018680                    
P 14 -13892.097208  -5657.714434 -21831.365143   -275.344414                    
V 14   2810.921276 -27722.614659   5280.591860       .040597                    
P 15   7302.485165 -24040.058956   8623.436479    -99.903620                    
V 15   2120.819119  11050.732335  29088.021961      -.050868                    
P 16 -18194.444758   3585.118954  19161.777628    127.910638                    
V 16 -19171.114014 -14644.594138 -15331.843438      -.012546                    
P 17  14607.699496   5757.932585 -21405.179795     39.686845                    
V 17  -2434.885685  27140.428292   5473.382802      -.004242                    
P 18 -18770.549826 -18307.531631   5475.692210   -185.536597                    
V 18   7056.595136   1617.906036  30223.034405       .035370                    
P 19  -8663.643361  23793.318621   7793.698226     27.806470                    
V 19  -1547.521429 -10121.304917  29681.342340       .010376                    
P 20   6279.710464  19018.037878 -17584.638281    116.084306                    
V 20 -19623.858000 -10372.792230 -18303.939595      -.008246                    
P 21 -14712.012835  -9574.845784  20260.430748     66.506637                    
V 21  22535.395743 -11477.884815  10426.217068      -.010219                    
P 22 -23307.148049 -10159.676447  -7614.334648    210.621195                    
V 22  -6176.913550  -8302.569359  29350.850443       .003163                    
P 23   -334.625395  26344.935163   2033.261102    348.858948                    
V 23  -2847.764409   2499.510688 -32008.105561       .023643                    
P 24    587.193581 -16519.383076  21010.349521     87.843867                    
V 24  24337.403260  -9888.115058  -8245.499742       .028968                    
P 25   1964.266140  16208.104074  21339.707655    -93.402832                    
V 25 -22552.216353  13389.227779  -8055.848118      -.289519                    
P 26   9647.848508 -21489.040900  11211.960582    235.871056                    
V 26    439.215520  15270.852686  28249.714756       .085239                    
P 27  11966.433041  10503.128864  21950.307000    182.714941                    
V 27 -22579.799423  13392.350132   5946.369339       .026619                    
P 28  23274.497258  11923.032018  -5196.647132    -18.046745                    
V 28   4339.349031   6038.310924  30674.796403      -.004534                    
P 29  -5902.761227 -23449.016554  11140.213257    -43.863224                    
V 29   3532.538820 -13715.352053 -27263.556204       .006257                    
P 30 -15199.737419 -18821.695326 -11411.763855     72.842330                    
V 30  13286.709169   5047.969130 -26711.499294       .016499                    
P 31 -24585.967852   6391.165762  -7735.844246    -17.150340                    
V 31   7919.180694  -6662.617758 -29767.814160      -.013194                    
P 32 -14697.646239   6483.508888 -20702.604816    272.506100                    
V 32 -20832.364330 -17622.495889   9249.497031       .063932                    
EOF
